{"type": "FeatureCollection", "features": [ {"type": "Feature", "properties": {"norad_id": 35168, "name": "FENGYUN 1C DEB", "group": "fengyun-1c-debris", "lat": -31.124872695517542, "lon": 67.69543460428687, "alt_km": 901.5356321769123, "timestamp": "2025-12-27T22:26:48.890346+00:00", "meta": {"OBJECT_NAME": "FENGYUN 1C DEB", "OBJECT_ID": "1999-025DMY", "EPOCH": "2025-12-21T22:57:46.882368", "MEAN_MOTION": 14.15533628, "ECCENTRICITY": 0.01261574, "INCLINATION": 98.2757, "RA_OF_ASC_NODE": 247.1845, "ARG_OF_PERICENTER": 100.9032, "MEAN_ANOMALY": 260.6368, "EPHEMERIS_TYPE": 0, "CLASSIFICATION_TYPE": "U", "NORAD_CAT_ID": 35168, "ELEMENT_SET_NO": 999, "REV_AT_EPOCH": 58054, "BSTAR": 0.00025025253, "MEAN_MOTION_DOT": 4.9e-06, "MEAN_MOTION_DDOT": 0}, "tle": {"line1": "1 35168U 99025DMY 25355.95679262  .00000490  00000+0  25025-3 0  9993", "line2": "2 35168  98.2757 247.1845 0126157 100.9032 260.6368 14.15533628580542"}}, "geometry": {"type": "Point", "coordinates": [67.69543460428687, -31.124872695517542]}}, {"type": "Feature", "properties": {"norad_id": 35169, "name": "FENGYUN 1C DEB", "group": "fengyun-1c-debris", "lat": 23.321788277567073, "lon": 70.97551749922494, "alt_km": 703.3100990900948, "timestamp": "2025-12-27T22:26:48.890356+00:00", "meta": {"OBJECT_NAME": "FENGYUN 1C DEB", "OBJECT_ID": "1999-025DMZ", "EPOCH": "2025-12-25T22:00:28.340352", "MEAN_MOTION": 14.58720603, "ECCENTRICITY": 0.0152527, "INCLINATION": 99.1286, "RA_OF_ASC_NODE": 244.784, "ARG_OF_PERICENTER": 68.0257, "MEAN_ANOMALY": 293.7069, "EPHEMERIS_TYPE": 0, "CLASSIFICATION_TYPE": "U", "NORAD_CAT_ID": 35169, "ELEMENT_SET_NO": 999, "REV_AT_EPOCH": 65972, "BSTAR": 0.00049343, "MEAN_MOTION_DOT": 2.643e-05, "MEAN_MOTION_DDOT": 0}, "tle": {"line1": "1 35169U 99025DMZ 25359.91699468  .00002643  00000+0  49343-3 0  9995", "line2": "2 35169  99.1286 244.7840 0152527  68.0257 293.7069 14.58720603659721"}}, "geometry": {"type": "Point", "coordinates": [70.97551749922494, 23.321788277567073]}}, {"type": "Feature", "properties": {"norad_id": 35171, "name": "FENGYUN 1C DEB", "group": "fengyun-1c-debris", "lat": -19.148488508090242, "lon": 156.10811985151568, "alt_km": 870.0743482035368, "timestamp": "2025-12-27T22:26:48.890376+00:00", "meta": {"OBJECT_NAME": "FENGYUN 1C DEB", "OBJECT_ID": "1999-025DNB", "EPOCH": "2025-12-27T03:36:15.932160", "MEAN_MOTION": 13.95036186, "ECCENTRICITY": 0.01387175, "INCLINATION": 99.0083, "RA_OF_ASC_NODE": 152.1838, "ARG_OF_PERICENTER": 279.1772, "MEAN_ANOMALY": 79.372, "EPHEMERIS_TYPE": 0, "CLASSIFICATION_TYPE": "U", "NORAD_CAT_ID": 35171, "ELEMENT_SET_NO": 999, "REV_AT_EPOCH": 88759, "BSTAR": 0.002156642, "MEAN_MOTION_DOT": 3.104e-05, "MEAN_MOTION_DDOT": 0}, "tle": {"line1": "1 35171U 99025DNB 25361.15018440  .00003104  00000+0  21566-2 0  9991", "line2": "2 35171  99.0083 152.1838 0138717 279.1772  79.3720 13.95036186887595"}}, "geometry": {"type": "Point", "coordinates": [156.10811985151568, -19.148488508090242]}}, {"type": "Feature", "properties": {"norad_id": 35173, "name": "FENGYUN 1C DEB", "group": "fengyun-1c-debris", "lat": 27.548427426992383, "lon": 67.78491881895523, "alt_km": 1426.9955016289541, "timestamp": "2025-12-27T22:26:48.890387+00:00", "meta": {"OBJECT_NAME": "FENGYUN 1C DEB", "OBJECT_ID": "1999-025DND", "EPOCH": "2025-12-22T00:26:44.822112", "MEAN_MOTION": 13.37371339, "ECCENTRICITY": 0.04908426, "INCLINATION": 99.786, "RA_OF_ASC_NODE": 67.2396, "ARG_OF_PERICENTER": 191.1556, "MEAN_ANOMALY": 167.8363, "EPHEMERIS_TYPE": 0, "CLASSIFICATION_TYPE": "U", "NORAD_CAT_ID": 35173, "ELEMENT_SET_NO": 999, "REV_AT_EPOCH": 65953, "BSTAR": 0.0019866257, "MEAN_MOTION_DOT": 2.041e-05, "MEAN_MOTION_DDOT": 0}, "tle": {"line1": "1 35173U 99025DND 25356.01857433  .00002041  00000+0  19866-2 0  9994", "line2": "2 35173  99.7860  67.2396 0490842 191.1556 167.8363 13.37371339659530"}}, "geometry": {"type": "Point", "coordinates": [67.78491881895523, 27.548427426992383]}}, {"type": "Feature", "properties": {"norad_id": 35174, "name": "FENGYUN 1C DEB", "group": "fengyun-1c-debris", "lat": 78.72690309408104, "lon": -73.8809955918299, "alt_km": 491.2913952978879, "timestamp": "2025-12-27T22:26:48.890398+00:00", "meta": {"OBJECT_NAME": "FENGYUN 1C DEB", "OBJECT_ID": "1999-025DNE", "EPOCH": "2025-12-13T04:07:25.072608", "MEAN_MOTION": 14.98877767, "ECCENTRICITY": 0.01541479, "INCLINATION": 98.9697, "RA_OF_ASC_NODE": 321.54, "ARG_OF_PERICENTER": 181.4297, "MEAN_ANOMALY": 178.6503, "EPHEMERIS_TYPE": 0, "CLASSIFICATION_TYPE": "U", "NORAD_CAT_ID": 35174, "ELEMENT_SET_NO": 999, "REV_AT_EPOCH": 90172, "BSTAR": 0.0023807921, "MEAN_MOTION_DOT": 0.0003695, "MEAN_MOTION_DDOT": 0}, "tle": {"line1": "1 35174U 99025DNE 25347.17181797  .00036950  00000+0  23808-2 0  9992", "line2": "2 35174  98.9697 321.5400 0154147 181.4297 178.6503 14.98877767901722"}}, "geometry": {"type": "Point", "coordinates": [-73.8809955918299, 78.72690309408104]}}, {"type": "Feature", "properties": {"norad_id": 35175, "name": "FENGYUN 1C DEB", "group": "fengyun-1c-debris", "lat": -57.886531378495626, "lon": 23.752105787992583, "alt_km": 810.6609021940658, "timestamp": "2025-12-27T22:26:48.890408+00:00", "meta": {"OBJECT_NAME": "FENGYUN 1C DEB", "OBJECT_ID": "1999-025DNF", "EPOCH": "2025-12-23T07:12:53.905824", "MEAN_MOTION": 14.21318843, "ECCENTRICITY": 0.00572726, "INCLINATION": 98.5748, "RA_OF_ASC_NODE": 5.3413, "ARG_OF_PERICENTER": 249.0345, "MEAN_ANOMALY": 110.4698, "EPHEMERIS_TYPE": 0, "CLASSIFICATION_TYPE": "U", "NORAD_CAT_ID": 35175, "ELEMENT_SET_NO": 999, "REV_AT_EPOCH": 61385, "BSTAR": 0.00032095367, "MEAN_MOTION_DOT": 6.69e-06, "MEAN_MOTION_DDOT": 0}, "tle": {"line1": "1 35175U 99025DNF 25357.30062391  .00000669  00000+0  32095-3 0  9994", "line2": "2 35175  98.5748   5.3413 0057272 249.0345 110.4698 14.21318843613857"}}, "geometry": {"type": "Point", "coordinates": [23.752105787992583, -57.886531378495626]}}, {"type": "Feature", "properties": {"norad_id": 35176, "name": "FENGYUN 1C DEB", "group": "fengyun-1c-debris", "lat": 79.88922360808195, "lon": -69.47228986788417, "alt_km": 815.29331082111, "timestamp": "2025-12-27T22:26:48.890418+00:00", "meta": {"OBJECT_NAME": "FENGYUN 1C DEB", "OBJECT_ID": "1999-025DNG", "EPOCH": "2025-12-26T22:19:39.242784", "MEAN_MOTION": 14.17016507, "ECCENTRICITY": 0.0054065, "INCLINATION": 98.5566, "RA_OF_ASC_NODE": 347.1578, "ARG_OF_PERICENTER": 16.3006, "MEAN_ANOMALY": 343.9893, "EPHEMERIS_TYPE": 0, "CLASSIFICATION_TYPE": "U", "NORAD_CAT_ID": 35176, "ELEMENT_SET_NO": 999, "REV_AT_EPOCH": 91129, "BSTAR": 0.00043301, "MEAN_MOTION_DOT": 8.41e-06, "MEAN_MOTION_DDOT": 0}, "tle": {"line1": "1 35176U 99025DNG 25360.93031531  .00000841  00000+0  43301-3 0  9994", "line2": "2 35176  98.5566 347.1578 0054065  16.3006 343.9893 14.17016507911297"}}, "geometry": {"type": "Point", "coordinates": [-69.47228986788417, 79.88922360808195]}}, {"type": "Feature", "properties": {"norad_id": 35180, "name": "FENGYUN 1C DEB", "group": "fengyun-1c-debris", "lat": -24.357524402063987, "lon": 167.15429987908183, "alt_km": 624.5790320194301, "timestamp": "2025-12-27T22:26:48.890427+00:00", "meta": {"OBJECT_NAME": "FENGYUN 1C DEB", "OBJECT_ID": "1999-025DNL", "EPOCH": "2025-12-23T17:14:03.437376", "MEAN_MOTION": 13.74480618, "ECCENTRICITY": 0.04956689, "INCLINATION": 99.7253, "RA_OF_ASC_NODE": 158.3893, "ARG_OF_PERICENTER": 349.9072, "MEAN_ANOMALY": 9.2401, "EPHEMERIS_TYPE": 0, "CLASSIFICATION_TYPE": "U", "NORAD_CAT_ID": 35180, "ELEMENT_SET_NO": 999, "REV_AT_EPOCH": 185, "BSTAR": 0.0020626755, "MEAN_MOTION_DOT": 4.753e-05, "MEAN_MOTION_DDOT": 0}, "tle": {"line1": "1 35180U 99025DNL 25357.71809534  .00004753  00000+0  20627-2 0  9998", "line2": "2 35180  99.7253 158.3893 0495668 349.9072   9.2401 13.74480618  1855"}}, "geometry": {"type": "Point", "coordinates": [167.15429987908183, -24.357524402063987]}}, {"type": "Feature", "properties": {"norad_id": 35191, "name": "FENGYUN 1C DEB", "group": "fengyun-1c-debris", "lat": -50.552325721314496, "lon": 152.27081235111356, "alt_km": 897.7375180190029, "timestamp": "2025-12-27T22:26:48.890437+00:00", "meta": {"OBJECT_NAME": "FENGYUN 1C DEB", "OBJECT_ID": "1999-025DNX", "EPOCH": "2025-12-26T16:00:04.577760", "MEAN_MOTION": 13.91209976, "ECCENTRICITY": 0.01027775, "INCLINATION": 99.017, "RA_OF_ASC_NODE": 342.1657, "ARG_OF_PERICENTER": 170.7833, "MEAN_ANOMALY": 189.5244, "EPHEMERIS_TYPE": 0, "CLASSIFICATION_TYPE": "U", "NORAD_CAT_ID": 35191, "ELEMENT_SET_NO": 999, "REV_AT_EPOCH": 88095, "BSTAR": 0.00024783836, "MEAN_MOTION_DOT": 2.83e-06, "MEAN_MOTION_DDOT": 0}, "tle": {"line1": "1 35191U 99025DNX 25360.66671965  .00000283  00000+0  24784-3 0  9996", "line2": "2 35191  99.0170 342.1657 0102777 170.7833 189.5244 13.91209976880958"}}, "geometry": {"type": "Point", "coordinates": [152.27081235111356, -50.552325721314496]}}, {"type": "Feature", "properties": {"norad_id": 35194, "name": "FENGYUN 1C DEB", "group": "fengyun-1c-debris", "lat": -45.98563004770309, "lon": 95.84990648095888, "alt_km": 678.6039787825966, "timestamp": "2025-12-27T22:26:48.890447+00:00", "meta": {"OBJECT_NAME": "FENGYUN 1C DEB", "OBJECT_ID": "1999-025DPA", "EPOCH": "2025-12-26T12:07:37.722144", "MEAN_MOTION": 14.6040764, "ECCENTRICITY": 0.0113748, "INCLINATION": 98.9469, "RA_OF_ASC_NODE": 84.9224, "ARG_OF_PERICENTER": 33.9986, "MEAN_ANOMALY": 326.8434, "EPHEMERIS_TYPE": 0, "CLASSIFICATION_TYPE": "U", "NORAD_CAT_ID": 35194, "ELEMENT_SET_NO": 999, "REV_AT_EPOCH": 65591, "BSTAR": 0.00071504, "MEAN_MOTION_DOT": 3.733e-05, "MEAN_MOTION_DDOT": 0}, "tle": {"line1": "1 35194U 99025DPA 25360.50529771  .00003733  00000+0  71504-3 0  9994", "line2": "2 35194  98.9469  84.9224 0113748  33.9986 326.8434 14.60407640655918"}}, "geometry": {"type": "Point", "coordinates": [95.84990648095888, -45.98563004770309]}}]}